ONEWEB-0280             
1 48998U 21060AH  23059.12875420  .00000136  00000+0  32169-3 0  9998
2 48998  87.9003 108.7534 0001013  91.0966 269.0281 13.16594680 82282
ONEWEB-0280             
1 48998U 21060AH  23059.50873918  .00000046  00000+0  87123-4 0  9991
2 48998  87.9001 108.6776 0000997  92.5619 267.5626 13.16594708 81048
ONEWEB-0280             
1 48998U 21060AH  23059.88872416  .00000090  00000+0  20174-3 0  9995
2 48998  87.8999 108.6017 0000992  92.9716 267.1528 13.16594191 81096
ONEWEB-0280             
1 48998U 21060AH  23060.19271185  .00000031  00000+0  47659-4 0  9990
2 48998  87.9000 108.5410 0000996  93.3776 266.7469 13.16594515 82428
ONEWEB-0280             
1 48998U 21060AH  23060.87668396  .00000126  00000+0  29683-3 0  9990
2 48998  87.8999 108.4044 0001017  95.6726 264.4521 13.16594614 81222
ONEWEB-0280             
1 48998U 21060AH  23061.56065687  .00000049  00000+0  94323-4 0  9999
2 48998  87.8998 108.2677 0001024  97.9994 262.1253 13.16594167 81311
ONEWEB-0280             
1 48998U 21060AH  23062.16863191  .00000038  00000+0  66462-4 0  9993
2 48998  87.8996 108.1464 0001024  98.3192 261.8055 13.16594709 82686
ONEWEB-0280             
1 48998U 21060AH  23062.54861661  .00000061  00000+0  12613-3 0  9999
2 48998  87.8994 108.0704 0001044  98.8808 261.2441 13.16594534 81443
ONEWEB-0280             
1 48998U 21060AH  23062.85260499 -.00000118  00000+0 -34167-3 0  9998
2 48998  87.8993 108.0098 0001034  98.9696 261.1552 13.16594333 81486
